GLOBAL-2                
1 43812U 18099BG  26197.58802737  .00001704  00000+0  11205-3 0  9993
2 43812  97.3548 232.8790 0007317  63.2940 296.9038 15.08830409416342
GLOBAL-4                
1 44499U 19054E   26197.80668420  .00040052  00000+0  36571-3 0  9993
2 44499  45.0056  65.1287 0005631 206.9473 153.1133 15.67212279385002
GLOBAL-9                
1 47971U 21023G   26197.69562009  .00012809  00000+0  24909-3 0  9994
2 47971  44.9813  84.5328 0003626 179.6814 180.4080 15.47649513299514
GLOBAL-14               
1 49469U 21106A   26197.18698473  .00015623  00000+0  25729-3 0  9997
2 49469  42.0038 118.5597 0017963 230.6390 129.2864 15.51859357262636
GLOBAL-12               
1 49772U 21115BA  26197.45500146  .00019610  00000+0  28962-3 0  9995
2 49772  53.1939 263.6186 0002904  72.6908 287.4421 15.55381310260457
GLOBAL-13               
1 49773U 21115BB  26197.84518032  .00011145  00000+0  22422-3 0  9992
2 49773  53.1966 273.4810 0000412 151.3448 208.7584 15.47150187260359
GLOBAL-17               
1 49949U 21120A   26197.47779538  .00014877  00000+0  22975-3 0  9990
2 49949  41.9929 234.5535 0013367 100.9034 259.3316 15.53756940259454
GLOBAL-16               
1 49950U 21120B   26197.53209191  .00014433  00000+0  24196-3 0  9997
2 49950  41.9932 238.5290 0011426  90.6788 269.5365 15.51520596259403
GLOBAL-18               
1 52196U 22034B   26197.07243782  .00013478  00000+0  26839-3 0  9995
2 52196  52.9819 118.4843 0004499  27.9075 332.2171 15.47244701241432
GLOBAL-19               
1 55982U 23041B   26196.92450295  .00007625  00000+0  20145-3 0  9993
2 55982  42.0023  34.2193 0009785 222.9817 137.0259 15.38694225186359
GLOBAL-5                
1 55983U 23041C   26197.67116203  .00008359  00000+0  22000-3 0  9992
2 55983  42.0015  29.3862 0008757 223.0579 136.9576 15.38719930186478
