{"fetched_at":"2026-07-17T06:38:15.228Z","source":"https://celestrak.org/NORAD/elements/gp.php?NAME=GLOBAL&FORMAT=JSON","constellation":"blacksky-gen2","records":[{"OBJECT_NAME":"GLOBAL-2","OBJECT_ID":"2018-099BG","EPOCH":"2026-07-16T14:06:45.564768","CLASSIFICATION_TYPE":"U","MEAN_MOTION":15.08830409,"ECCENTRICITY":0.0007317,"INCLINATION":97.3548,"RA_OF_ASC_NODE":232.879,"ARG_OF_PERICENTER":63.294,"MEAN_ANOMALY":296.9038,"EPHEMERIS_TYPE":0,"NORAD_CAT_ID":43812,"ELEMENT_SET_NO":999,"REV_AT_EPOCH":41634,"BSTAR":0.00011205,"MEAN_MOTION_DOT":0.00001704,"MEAN_MOTION_DDOT":0},{"OBJECT_NAME":"GLOBAL-4","OBJECT_ID":"2019-054E","EPOCH":"2026-07-16T19:21:37.514880","CLASSIFICATION_TYPE":"U","MEAN_MOTION":15.67212279,"ECCENTRICITY":0.0005631,"INCLINATION":45.0056,"RA_OF_ASC_NODE":65.1287,"ARG_OF_PERICENTER":206.9473,"MEAN_ANOMALY":153.1133,"EPHEMERIS_TYPE":0,"NORAD_CAT_ID":44499,"ELEMENT_SET_NO":999,"REV_AT_EPOCH":38500,"BSTAR":0.00036571,"MEAN_MOTION_DOT":0.00040052,"MEAN_MOTION_DDOT":0},{"OBJECT_NAME":"GLOBAL-9","OBJECT_ID":"2021-023G","EPOCH":"2026-07-16T16:41:41.575776","CLASSIFICATION_TYPE":"U","MEAN_MOTION":15.47649513,"ECCENTRICITY":0.0003626,"INCLINATION":44.9813,"RA_OF_ASC_NODE":84.5328,"ARG_OF_PERICENTER":179.6814,"MEAN_ANOMALY":180.408,"EPHEMERIS_TYPE":0,"NORAD_CAT_ID":47971,"ELEMENT_SET_NO":999,"REV_AT_EPOCH":29951,"BSTAR":0.00024909,"MEAN_MOTION_DOT":0.00012809,"MEAN_MOTION_DDOT":0},{"OBJECT_NAME":"GLOBAL-14","OBJECT_ID":"2021-106A","EPOCH":"2026-07-16T04:29:15.480672","CLASSIFICATION_TYPE":"U","MEAN_MOTION":15.51859357,"ECCENTRICITY":0.0017963,"INCLINATION":42.0038,"RA_OF_ASC_NODE":118.5597,"ARG_OF_PERICENTER":230.639,"MEAN_ANOMALY":129.2864,"EPHEMERIS_TYPE":0,"NORAD_CAT_ID":49469,"ELEMENT_SET_NO":999,"REV_AT_EPOCH":26263,"BSTAR":0.00025729,"MEAN_MOTION_DOT":0.00015623,"MEAN_MOTION_DDOT":0},{"OBJECT_NAME":"GLOBAL-12","OBJECT_ID":"2021-115BA","EPOCH":"2026-07-16T10:55:12.126144","CLASSIFICATION_TYPE":"U","MEAN_MOTION":15.5538131,"ECCENTRICITY":0.0002904,"INCLINATION":53.1939,"RA_OF_ASC_NODE":263.6186,"ARG_OF_PERICENTER":72.6908,"MEAN_ANOMALY":287.4421,"EPHEMERIS_TYPE":0,"NORAD_CAT_ID":49772,"ELEMENT_SET_NO":999,"REV_AT_EPOCH":26045,"BSTAR":0.00028962,"MEAN_MOTION_DOT":0.0001961,"MEAN_MOTION_DDOT":0},{"OBJECT_NAME":"GLOBAL-13","OBJECT_ID":"2021-115BB","EPOCH":"2026-07-16T20:17:03.579648","CLASSIFICATION_TYPE":"U","MEAN_MOTION":15.47150187,"ECCENTRICITY":0.0000412,"INCLINATION":53.1966,"RA_OF_ASC_NODE":273.481,"ARG_OF_PERICENTER":151.3448,"MEAN_ANOMALY":208.7584,"EPHEMERIS_TYPE":0,"NORAD_CAT_ID":49773,"ELEMENT_SET_NO":999,"REV_AT_EPOCH":26035,"BSTAR":0.00022422,"MEAN_MOTION_DOT":0.00011145,"MEAN_MOTION_DDOT":0},{"OBJECT_NAME":"GLOBAL-17","OBJECT_ID":"2021-120A","EPOCH":"2026-07-16T11:28:01.520832","CLASSIFICATION_TYPE":"U","MEAN_MOTION":15.5375694,"ECCENTRICITY":0.0013367,"INCLINATION":41.9929,"RA_OF_ASC_NODE":234.5535,"ARG_OF_PERICENTER":100.9034,"MEAN_ANOMALY":259.3316,"EPHEMERIS_TYPE":0,"NORAD_CAT_ID":49949,"ELEMENT_SET_NO":999,"REV_AT_EPOCH":25945,"BSTAR":0.00022975,"MEAN_MOTION_DOT":0.00014877,"MEAN_MOTION_DDOT":0},{"OBJECT_NAME":"GLOBAL-16","OBJECT_ID":"2021-120B","EPOCH":"2026-07-16T12:46:12.741024","CLASSIFICATION_TYPE":"U","MEAN_MOTION":15.51520596,"ECCENTRICITY":0.0011426,"INCLINATION":41.9932,"RA_OF_ASC_NODE":238.529,"ARG_OF_PERICENTER":90.6788,"MEAN_ANOMALY":269.5365,"EPHEMERIS_TYPE":0,"NORAD_CAT_ID":49950,"ELEMENT_SET_NO":999,"REV_AT_EPOCH":25940,"BSTAR":0.00024196,"MEAN_MOTION_DOT":0.00014433,"MEAN_MOTION_DDOT":0},{"OBJECT_NAME":"GLOBAL-18","OBJECT_ID":"2022-034B","EPOCH":"2026-07-16T01:44:18.627648","CLASSIFICATION_TYPE":"U","MEAN_MOTION":15.47244701,"ECCENTRICITY":0.0004499,"INCLINATION":52.9819,"RA_OF_ASC_NODE":118.4843,"ARG_OF_PERICENTER":27.9075,"MEAN_ANOMALY":332.2171,"EPHEMERIS_TYPE":0,"NORAD_CAT_ID":52196,"ELEMENT_SET_NO":999,"REV_AT_EPOCH":24143,"BSTAR":0.00026838998,"MEAN_MOTION_DOT":0.00013478,"MEAN_MOTION_DDOT":0},{"OBJECT_NAME":"GLOBAL-19","OBJECT_ID":"2023-041B","EPOCH":"2026-07-15T22:11:17.054880","CLASSIFICATION_TYPE":"U","MEAN_MOTION":15.38694225,"ECCENTRICITY":0.0009785,"INCLINATION":42.0023,"RA_OF_ASC_NODE":34.2193,"ARG_OF_PERICENTER":222.9817,"MEAN_ANOMALY":137.0259,"EPHEMERIS_TYPE":0,"NORAD_CAT_ID":55982,"ELEMENT_SET_NO":999,"REV_AT_EPOCH":18635,"BSTAR":0.00020145,"MEAN_MOTION_DOT":0.00007625,"MEAN_MOTION_DDOT":0},{"OBJECT_NAME":"GLOBAL-5","OBJECT_ID":"2023-041C","EPOCH":"2026-07-16T16:06:28.399392","CLASSIFICATION_TYPE":"U","MEAN_MOTION":15.3871993,"ECCENTRICITY":0.0008757,"INCLINATION":42.0015,"RA_OF_ASC_NODE":29.3862,"ARG_OF_PERICENTER":223.0579,"MEAN_ANOMALY":136.9576,"EPHEMERIS_TYPE":0,"NORAD_CAT_ID":55983,"ELEMENT_SET_NO":999,"REV_AT_EPOCH":18647,"BSTAR":0.00022,"MEAN_MOTION_DOT":0.00008359,"MEAN_MOTION_DDOT":0}]}
